ONEWEB-0171             
1 48070U 21025AE  25239.42983863 -.00000070  00000+0 -22735-3 0  9993
2 48070  87.9007  18.6036 0001660  95.3640 264.7679 13.13470547215055
ONEWEB-0172             
1 48071U 21025AF  25239.63803727 -.00000221  00000+0 -63908-3 0  9992
2 48071  87.9014  18.5293 0001581  97.8212 262.3097 13.13468877215974
ONEWEB-0174             
1 48072U 21025AG  25239.61944396  .00000194  00000+0  49659-3 0  9993
2 48072  87.9011  18.5462 0001775 101.7003 258.4325 13.13470252215293
ONEWEB-0175             
1 48073U 21025AH  25239.42137012 -.00000254  00000+0 -72960-3 0  9992
2 48073  87.9007  18.5500 0001507  88.7620 271.3682 13.13469263214923
ONEWEB-0177             
1 48074U 21025AJ  25239.43321150  .00000023  00000+0  26720-4 0  9998
2 48074  87.9013  18.5636 0001720 103.5965 256.5356 13.13469980215117
ONEWEB-0178             
1 48075U 21025AK  25239.45196810  .00000295  00000+0  77263-3 0  9992
2 48075  87.9014  18.6060 0001448  97.5642 262.5652 13.13467865215163
ONEWEB-0108             
1 48076U 21025AL  25239.63974117 -.00000164  00000+0 -48407-3 0  9992
2 48076  87.9010  18.5154 0002021  96.1678 263.9681 13.13469138215112
ONEWEB-0169             
1 48077U 21025AM  25239.44337323  .00000032  00000+0  53959-4 0  9995
2 48077  87.9011  18.5772 0001693  86.6873 273.4450 13.13470769213744
